GLOBALSTAR M057 [-]     
1 25943U 99058A   23317.41177997 -.00000031  00000+0  56380-3 0  9994
2 25943  51.9972 199.2003 0001485 257.7951 102.2732 12.24778610 95645
GLOBALSTAR M059 [-]     
1 25944U 99058B   23317.78169661 -.00000064  00000+0  27010-3 0  9998
2 25944  52.0039 340.0276 0000206 278.8806 252.6567 11.99954560504241
GLOBALSTAR M056 [-]     
1 25945U 99058C   23317.86341296  .00000000  00000+0  10193-2 0  9996
2 25945  51.9992 356.7012 0001201 114.8055  56.5895 12.04771384 92550
GLOBALSTAR M031 [-]     
1 25946U 99058D   23318.11392920 -.00000142  00000+0 -52673-3 0  9995
2 25946  51.9968 283.1031 0002047  70.8194  10.9394 12.15999102 94093
GLOBALSTAR M039 [-]     
1 25961U 99062A   23318.04968085 -.00000046  00000+0  32335-3 0  9995
2 25961  51.9845 238.6663 0003050 124.6356 235.4798 12.62274301106852
GLOBALSTAR M034 [-]     
1 25962U 99062B   23317.64557383 -.00000100  00000+0 -30869-3 0  9998
2 25962  51.9865  83.0174 0014067  27.3117 346.0538 11.79417180 69779
GLOBALSTAR M029 [-]     
1 25963U 99062C   23318.16901528 -.00000040  00000+0  57877-3 0  9991
2 25963  51.9798 227.5117 0003539  57.9756 121.4115 11.99870308 99425
GLOBALSTAR M061 [-]     
1 25964U 99062D   23318.11528667  .00000003  00000+0  13680-2 0  9997
2 25964  51.9794 258.1366 0005996 320.4989  55.2262 11.76754069 53060
